ONEWEB-0584             
1 54651U 22166K   23272.99389095 -.00000832  00000+0 -20458-2 0  9991
2 54651  87.9181  81.3125 0001521 105.8687 254.2615 13.21823969 40576
ONEWEB-0585             
1 54652U 22166L   23273.01703277  .00000019  00000+0  14255-4 0  9993
2 54652  87.9179  81.3094 0001956  86.4067 273.7291 13.21826127 40583
ONEWEB-0586             
1 54653U 22166M   23273.48382555  .00000017  00000+0  96790-5 0  9990
2 54653  87.9154  81.2631 0001686  97.9214 262.2111 13.21821678 41114
ONEWEB-0587             
1 54654U 22166N   23273.04056792  .00019477  00000+0  46832-1 0  9992
2 54654  87.9162  81.2957 0001445  77.2299 282.8997 13.22105686 40745
ONEWEB-0589             
1 54655U 22166P   23273.02756420  .00000016  00000+0  80759-5 0  9995
2 54655  87.9180  81.3134 0001553 130.2140 229.9130 13.21826275 40608
ONEWEB-0590             
1 54656U 22166Q   23272.97709115  .00000177  00000+0  39666-3 0  9995
2 54656  87.9177  81.3290 0001651  76.4964 283.6354 13.21822254 40587
ONEWEB-0591             
1 54657U 22166R   23272.98969745  .00000093  00000+0  19387-3 0  9999
2 54657  87.9184  81.3245 0001496  91.7975 268.3330 13.21828386 40615
ONEWEB-0592             
1 54658U 22166S   23272.99180828  .00000026  00000+0  30414-4 0  9999
2 54658  87.9171  81.3081 0001434  94.4379 265.6919 13.21823814 40490
